[{"OBJECT_NAME":"FUNCUBE-1 (AO-73)","OBJECT_ID":"2013-066AE","EPOCH":"2026-03-09T21:45:20.354112","MEAN_MOTION":15.07917828,"ECCENTRICITY":0.00373117,"INCLINATION":97.8195,"RA_OF_ASC_NODE":38.4486,"ARG_OF_PERICENTER":178.1154,"MEAN_ANOMALY":182.0221,"EPHEMERIS_TYPE":0,"CLASSIFICATION_TYPE":"U","NORAD_CAT_ID":39444,"ELEMENT_SET_NO":999,"REV_AT_EPOCH":66469,"BSTAR":0.00061714882,"MEAN_MOTION_DOT":9.564e-5,"MEAN_MOTION_DDOT":0},{"OBJECT_NAME":"STARLINK-6125","OBJECT_ID":"2023-090P","EPOCH":"2026-03-09T13:23:33.960480","MEAN_MOTION":15.02531354,"ECCENTRICITY":0.00012622,"INCLINATION":43.001,"RA_OF_ASC_NODE":275.3562,"ARG_OF_PERICENTER":268.8087,"MEAN_ANOMALY":91.261,"EPHEMERIS_TYPE":0,"CLASSIFICATION_TYPE":"U","NORAD_CAT_ID":57114,"ELEMENT_SET_NO":999,"REV_AT_EPOCH":15039,"BSTAR":-5.4744e-8,"MEAN_MOTION_DOT":-2.04e-6,"MEAN_MOTION_DDOT":0}]
