FUNCUBE-1 (AO-73)       
1 39444U 13066AE  26068.90648558  .00009564  00000+0  61715-3 0  9993
2 39444  97.8195  38.4486 0037312 178.1154 182.0221 15.07917828664696
STARLINK-6125           
1 57114U 23090P   26068.55803195 -.00000204  00000+0 -54744-7 0  9998
2 57114  43.0010 275.3562 0001262 268.8087  91.2610 15.02531354150394
